NORAD_CAT_ID,OBJECT_NAME,OBJECT_TYPE,EPOCH,MEAN_MOTION,ECCENTRICITY,INCLINATION,RA_OF_ASC_NODE,ARG_OF_PERICENTER,MEAN_ANOMALY,BSTAR,MEAN_MOTION_DOT,MEAN_MOTION_DDOT,TLE_LINE0,TLE_LINE1,TLE_LINE2,SEMIMAJOR_AXIS,PERIOD,APOGEE,PERIGEE,DECAYED
50198.0,STARLINK-3264,PAYLOAD,2022-09-05 07:55:05,15.08842896,0.0001849,53.2144,231.3793,61.132,298.9857,0.00011625,1.563e-05,0.0,0 STARLINK-3264,1 50198U 21125AU  22248.32992108  .00001563  00000-0  11625-3 0  9999,2 50198  53.2144 231.3793 0001849  61.1320 298.9857 15.08842896 42811,6917.871999999999,95.437,541.016,538.457,0.0
50198.0,STARLINK-3264,PAYLOAD,2022-09-06 07:45:52,15.08839277,0.0001888,53.2143,226.9175,57.7978,302.3197,-4.7715e-05,-1.047e-05,0.0,0 STARLINK-3264,1 50198U 21125AU  22249.32352056 -.00001047  00000-0 -47715-4 0  9991,2 50198  53.2143 226.9175 0001888  57.7978 302.3197 15.08839277 43443,6917.8830000000025,95.438,541.054,538.442,0.0
50198.0,STARLINK-3264,PAYLOAD,2022-09-06 15:42:48,15.08826275,0.0001871,53.214,225.4308,57.4697,302.6476,-0.0002189,-3.769e-05,0.0,0 STARLINK-3264,1 50198U 21125AU  22249.65472887 -.00003769  00000-0 -21890-3 0  9990,2 50198  53.2140 225.4308 0001871  57.4697 302.6476 15.08826275 43491,6917.922,95.438,541.082,538.493,0.0
50198.0,STARLINK-3264,PAYLOAD,2022-09-07 07:36:40,15.08836675,0.0001689,53.2154,222.4575,57.3398,302.7757,-6.3447e-05,-1.298e-05,0.0,0 STARLINK-3264,1 50198U 21125AU  22250.31713179 -.00001298  00000-0 -63447-4 0  9997,2 50198  53.2154 222.4575 0001689  57.3398 302.7757 15.08836675 43110,6917.891,95.438,540.924,538.587,0.0
50198.0,STARLINK-3264,PAYLOAD,2022-09-07 15:33:35,15.08835059,0.0001784,53.2156,220.9711,58.2264,301.8901,2.4113e-05,9.6e-07,0.0,0 STARLINK-3264,1 50198U 21125AU  22250.64833256  .00000096  00000-0  24113-4 0  9992,2 50198  53.2156 220.9711 0001784  58.2264 301.8901 15.08835059 43649,6917.895,95.438,540.995,538.526,0.0
50198.0,STARLINK-3264,PAYLOAD,2022-09-08 07:27:27,15.08842819,0.0001723,53.2143,217.997,61.7152,298.4014,0.00014077,1.953e-05,0.0,0 STARLINK-3264,1 50198U 21125AU  22251.31073132  .00001953  00000-0  14077-3 0  9996,2 50198  53.2143 217.9970 0001723  61.7152 298.4014 15.08842819 43745,6917.871999999999,95.437,540.929,538.545,0.0
50198.0,STARLINK-3264,PAYLOAD,2022-09-09 04:07:28,15.0884059,0.0001771999999999,53.2146,214.1311,58.349,301.7674,0.00023716,3.488e-05,0.0,0 STARLINK-3264,1 50198U 21125AU  22252.17185508  .00003488  00000-0  23716-3 0  9997,2 50198  53.2146 214.1311 0001772  58.3490 301.7674 15.08840590 43392,6917.879,95.438,540.969,538.518,0.0
50198.0,STARLINK-3264,PAYLOAD,2022-09-09 07:18:14,15.08841727,0.0001761,53.2147,213.5365,57.5779,302.5384,0.00021561,3.145e-05,0.0,0 STARLINK-3264,1 50198U 21125AU  22252.30433456  .00003145  00000-0  21561-3 0  9996,2 50198  53.2147 213.5365 0001761  57.5779 302.5384 15.08841727 43899,6917.875,95.437,540.9580000000002,538.5219999999998,0.0
50198.0,STARLINK-3264,PAYLOAD,2022-09-10 08:44:24,15.08845246,0.0001693,53.2156,208.7785,55.5624,304.5528,4.2025e-05,3.81e-06,0.0,0 STARLINK-3264,1 50198U 21125AU  22253.36416915  .00000381  00000-0  42025-4 0  9992,2 50198  53.2156 208.7785 0001693  55.5624 304.5528 15.08845246 44053,6917.864000000001,95.437,540.901,538.558,0.0
50198.0,STARLINK-3264,PAYLOAD,2022-09-11 08:35:11,15.08838044,0.0001649,53.2148,204.3191,60.2666,299.849,-9.2544e-05,-1.761e-05,0.0,0 STARLINK-3264,1 50198U 21125AU  22254.35777564 -.00001761  00000-0 -92544-4 0  9998,2 50198  53.2148 204.3191 0001649  60.2666 299.8490 15.08838044 43722,6917.886,95.438,540.8919999999998,538.611,0.0
50198.0,STARLINK-3264,PAYLOAD,2022-09-11 21:18:16,15.08834697,0.0001631999999999,53.2156,201.9393,57.2911,302.8239,3.7754e-05,3.13e-06,0.0,0 STARLINK-3264,1 50198U 21125AU  22254.88769576  .00000313  00000-0  37754-4 0  9992,2 50198  53.2156 201.9393 0001632  57.2911 302.8239 15.08834697 44287,6917.897,95.438,540.891,538.633,0.0
50198.0,STARLINK-3264,PAYLOAD,2022-09-12 05:15:12,15.08844933,0.0001686999999999,53.2156,200.4525,57.3926,302.7229,0.00013467,1.856e-05,0.0,0 STARLINK-3264,1 50198U 21125AU  22255.21888890  .00001856  00000-0  13467-3 0  9998,2 50198  53.2156 200.4525 0001687  57.3926 302.7229 15.08844933 44333,6917.865,95.437,540.8969999999998,538.563,0.0
50198.0,STARLINK-3264,PAYLOAD,2022-09-13 05:05:59,15.08842249,0.0001724,53.2152,195.9923,57.0916,303.0242,0.00011435,1.532e-05,0.0,0 STARLINK-3264,1 50198U 21125AU  22256.21249176  .00001532  00000-0  11435-3 0  9991,2 50198  53.2152 195.9923 0001724  57.0916 303.0242 15.08842249 44480,6917.874,95.437,540.931,538.5459999999998,0.0
50198.0,STARLINK-3264,PAYLOAD,2022-09-14 03:21:23,15.08835204,0.0001348,53.2149,191.8288,62.2379,297.875,-3.3364e-05,-8.19e-06,0.0,0 STARLINK-3264,1 50198U 21125AU  22257.13985625 -.00000819  00000-0 -33364-4 0  9994,2 50198  53.2149 191.8288 0001348  62.2379 297.8750 15.08835204 44148,6917.895,95.438,540.693,538.828,0.0
50198.0,STARLINK-3264,PAYLOAD,2022-09-14 06:32:10,15.08828782,0.0001661,53.2152,191.2333,55.9156,304.1994,-0.00011636,-2.139e-05,0.0,0 STARLINK-3264,1 50198U 21125AU  22257.27234093 -.00002139  00000-0 -11636-3 0  9999,2 50198  53.2152 191.2333 0001661  55.9156 304.1994 15.08828782 44647,6917.915,95.438,540.929,538.631,0.0
50198.0,STARLINK-3264,PAYLOAD,2022-09-14 12:53:42,15.08835914,0.0001295,53.2154,190.0436,60.2381,299.8739,-1.6676e-06,-3.14e-06,0.0,0 STARLINK-3264,1 50198U 21125AU  22257.53730153 -.00000314  00000-0 -16676-5 0  9990,2 50198  53.2154 190.0436 0001295  60.2381 299.8739 15.08835914 44688,6917.893,95.438,540.654,538.862,0.0
50198.0,STARLINK-3264,PAYLOAD,2022-09-15 03:12:11,15.08836125,0.0001601,53.2163,187.3686,56.736,303.3785,3.3125e-05,2.39e-06,0.0,0 STARLINK-3264,1 50198U 21125AU  22258.13346236  .00000239  00000-0  33125-4 0  9993,2 50198  53.2163 187.3686 0001601  56.7360 303.3785 15.08836125 44296,6917.892,95.438,540.865,538.65,0.0
50198.0,STARLINK-3264,PAYLOAD,2022-09-15 07:58:20,15.08837178,0.0001764999999999,53.2162,186.4764,55.9753,304.1407,3.0591e-05,1.99e-06,0.0,0 STARLINK-3264,1 50198U 21125AU  22258.33218096  .00000199  00000-0  30591-4 0  9996,2 50198  53.2162 186.4764 0001765  55.9753 304.1407 15.08837178 44806,6917.889,95.438,540.975,538.533,0.0
50198.0,STARLINK-3264,PAYLOAD,2022-09-15 23:52:11,15.08843129,0.0001462,53.2157,183.5033,56.2861,303.827,0.00021942,3.206e-05,0.0,0 STARLINK-3264,1 50198U 21125AU  22258.99457248  .00003206  00000-0  21942-3 0  9993,2 50198  53.2157 183.5033 0001462  56.2861 303.8270 15.08843129 44420,6917.871,95.437,540.747,538.724,0.0
50198.0,STARLINK-3264,PAYLOAD,2022-09-16 04:38:20,15.08845355,0.0001688,53.2164,182.6135,53.167,306.9477,0.00030451,4.562e-05,0.0,0 STARLINK-3264,1 50198U 21125AU  22259.19329801  .00004562  00000-0  30451-3 0  9990,2 50198  53.2164 182.6135 0001688  53.1670 306.9477 15.08845355 44937,6917.864000000001,95.437,540.8969999999998,538.561,0.0
50198.0,STARLINK-3264,PAYLOAD,2022-09-17 04:29:09,15.08826585,0.0001561,53.2158,178.1489,52.5276,307.5858,-0.0001281,-2.325e-05,0.0,0 STARLINK-3264,1 50198U 21125AU  22260.18691645 -.00002325  00000-0 -12810-3 0  9995,2 50198  53.2158 178.1489 0001561  52.5276 307.5858 15.08826585 44605,6917.920999999999,95.438,540.866,538.707,0.0
50198.0,STARLINK-3264,PAYLOAD,2022-09-17 23:33:46,15.08838776,0.0001614,53.2157,174.5814,52.4972,307.6167,-6.0913e-05,-1.257e-05,0.0,0 STARLINK-3264,1 50198U 21125AU  22260.98179183 -.00001257  00000-0 -60913-4 0  9992,2 50198  53.2157 174.5814 0001614  52.4972 307.6167 15.08838776 44729,6917.884,95.438,540.866,538.633,0.0
50198.0,STARLINK-3264,PAYLOAD,2022-09-18 05:55:19,15.08833558,0.0001674,53.2162,173.3917,64.0648,296.0516,0.00012852,1.758e-05,0.0,0 STARLINK-3264,1 50198U 21125AU  22261.24675038  .00001758  00000-0  12852-3 0  9994,2 50198  53.2162 173.3917 0001674  64.0648 296.0516 15.08833558 45241,6917.9,95.438,540.923,538.607,0.0
50198.0,STARLINK-3264,PAYLOAD,2022-09-18 18:38:23,15.08837702,0.0001528,53.2159,171.0132,56.81800000000001,303.2959,0.00024499,3.613e-05,0.0,0 STARLINK-3264,1 50198U 21125AU  22261.77666371  .00003613  00000-0  24499-3 0  9994,2 50198  53.2159 171.0132 0001528  56.8180 303.2959 15.08837702 44841,6917.887,95.438,540.809,538.695,0.0
50198.0,STARLINK-3264,PAYLOAD,2022-09-18 20:13:46,15.0883896,0.0001539,53.2159,170.7157,57.0107,303.1033,0.00025891,3.835e-05,0.0,0 STARLINK-3264,1 50198U 21125AU  22261.84290341  .00003835  00000-0  25891-3 0  9995,2 50198  53.2159 170.7157 0001539  57.0107 303.1033 15.08838960 45332,6917.884,95.438,540.813,538.684,0.0
50198.0,STARLINK-3264,PAYLOAD,2022-09-19 10:32:15,15.08844182,0.0001712,53.2149,168.0401,60.7267,299.3896,0.00024937,3.683e-05,0.0,0 STARLINK-3264,1 50198U 21125AU  22262.43906822  .00003683  00000-0  24937-3 0  9990,2 50198  53.2149 168.0401 0001712  60.7267 299.3896 15.08844182 45420,6917.868,95.437,540.9169999999998,538.548,0.0
50198.0,STARLINK-3264,PAYLOAD,2022-09-19 20:04:34,15.0884232,0.0001805,53.2158,166.2576,60.8872,299.23,6.6452e-06,-1.82e-06,0.0,0 STARLINK-3264,1 50198U 21125AU  22262.83650924 -.00000182  00000-0  66452-5 0  9995,2 50198  53.2158 166.2576 0001805  60.8872 299.2300 15.08842320 45486,6917.873000000001,95.437,540.987,538.49,0.0
50198.0,STARLINK-3264,PAYLOAD,2022-09-20 02:26:06,15.08843252,0.0001838,53.2159,165.0679,62.4978,297.6201,7.7634e-07,-2.76e-06,0.0,0 STARLINK-3264,1 50198U 21125AU  22263.10146782 -.00000276  00000-0  77634-6 0  9997,2 50198  53.2159 165.0679 0001838  62.4978 297.6201 15.08843252 45048,6917.87,95.437,541.007,538.464,0.0
50198.0,STARLINK-3264,PAYLOAD,2022-09-20 10:23:02,15.08849457,0.0001766999999999,53.2162,163.5811,73.6759,286.4427,4.0629e-05,3.59e-06,0.0,0 STARLINK-3264,1 50198U 21125AU  22263.43266335  .00000359  00000-0  40629-4 0  9993,2 50198  53.2162 163.5811 0001767  73.6759 286.4427 15.08849457 45572,6917.851,95.437,540.939,538.494,0.0
